[{"OBJECT_NAME":"OBJECT N","OBJECT_ID":"2025-155N","EPOCH":"2026-03-09T22:27:42.648192","MEAN_MOTION":15.35502024,"ECCENTRICITY":0.00088608,"INCLINATION":97.4405,"RA_OF_ASC_NODE":38.3729,"ARG_OF_PERICENTER":136.1354,"MEAN_ANOMALY":224.0595,"EPHEMERIS_TYPE":0,"CLASSIFICATION_TYPE":"U","NORAD_CAT_ID":64888,"ELEMENT_SET_NO":999,"REV_AT_EPOCH":6567,"BSTAR":0.00095623277,"MEAN_MOTION_DOT":0.00033051,"MEAN_MOTION_DDOT":0},{"OBJECT_NAME":"SL-8 R\/B","OBJECT_ID":"1971-119B","EPOCH":"2026-03-09T17:26:54.866688","MEAN_MOTION":14.37860327,"ECCENTRICITY":0.05486467,"INCLINATION":73.8873,"RA_OF_ASC_NODE":175.649,"ARG_OF_PERICENTER":142.2751,"MEAN_ANOMALY":221.8237,"EPHEMERIS_TYPE":0,"CLASSIFICATION_TYPE":"U","NORAD_CAT_ID":5730,"ELEMENT_SET_NO":999,"REV_AT_EPOCH":65549,"BSTAR":0.00068082483,"MEAN_MOTION_DOT":0.00013069,"MEAN_MOTION_DDOT":0}]
